NORAD_CAT_ID,OBJECT_NAME,OBJECT_TYPE,EPOCH,MEAN_MOTION,ECCENTRICITY,INCLINATION,RA_OF_ASC_NODE,ARG_OF_PERICENTER,MEAN_ANOMALY,BSTAR,MEAN_MOTION_DOT,MEAN_MOTION_DDOT,TLE_LINE0,TLE_LINE1,TLE_LINE2,SEMIMAJOR_AXIS,PERIOD,APOGEE,PERIGEE,DECAYED
56489.0,STARLINK-5923,PAYLOAD,2024-05-11 00:50:12,14.98337578,0.0002837,70.0002,347.8779,266.2323,93.8512,0.0001272,1.425e-05,0.0,0 STARLINK-5923,1 56489U 23064AT  24132.03486329  .00001425  00000-0  12720-3 0  9991,2 56489  70.0002 347.8779 0002837 266.2323  93.8512 14.98337578 56589,6950.169,96.107,574.006,570.063,0.0
56489.0,STARLINK-5923,PAYLOAD,2024-05-11 20:03:49,14.98317734,0.0002489,70.0,345.8586,269.5072,90.5802,-0.00023121,-2.85e-05,0.0,0 STARLINK-5923,1 56489U 23064AT  24132.83598877 -.00002850  00000-0 -23121-3 0  9993,2 56489  70.0000 345.8586 0002489 269.5072  90.5802 14.98317734 56703,6950.231,96.108,573.826,570.366,0.0
56489.0,STARLINK-5923,PAYLOAD,2024-05-11 21:39:57,14.9831952,0.0002619,69.9995,345.6893,267.8268,92.2591,-0.00017613,-2.193e-05,0.0,0 STARLINK-5923,1 56489U 23064AT  24132.90274799 -.00002193  00000-0 -17613-3 0  9994,2 56489  69.9995 345.6893 0002619 267.8268  92.2591 14.98319520 56355,6950.225,96.108,573.911,570.27,0.0
56489.0,STARLINK-5923,PAYLOAD,2024-05-12 07:16:50,14.98265663,0.000236,70.0006,344.6805,263.9987,96.0903,-0.0007209,-8.669e-05,0.0,0 STARLINK-5923,1 56489U 23064AT  24133.30336248 -.00008669  00000-0 -72090-3 0  9991,2 56489  70.0006 344.6805 0002360 263.9987  96.0903 14.98265663 56774,6950.392,96.111,573.897,570.617,0.0
56489.0,STARLINK-5923,PAYLOAD,2024-05-12 20:05:52,14.98314308,0.0002649,69.9993,343.3328,270.076,90.0095,-4.1106e-05,-5.83e-06,0.0,0 STARLINK-5923,1 56489U 23064AT  24133.83741342 -.00000583  00000-0 -41106-4 0  9996,2 56489  69.9993 343.3328 0002649 270.0760  90.0095 14.98314308 56856,6950.241,96.108,573.948,570.265,0.0
56489.0,STARLINK-5923,PAYLOAD,2024-05-12 21:42:00,14.98315782,0.0002435,70.0,343.1648,262.7538,97.3345,-3.6264e-05,-5.25e-06,0.0,0 STARLINK-5923,1 56489U 23064AT  24133.90417418 -.00000525  00000-0 -36264-4 0  9993,2 56489  70.0000 343.1648 0002435 262.7538  97.3345 14.98315782 56502,6950.237,96.108,573.794,570.409,0.0
56489.0,STARLINK-5923,PAYLOAD,2024-05-13 13:43:20,14.98305963,0.000263,69.9993,341.4804,269.3833,90.7025,0.00032966,3.84e-05,0.0,0 STARLINK-5923,1 56489U 23064AT  24134.57176752  .00003840  00000-0  32966-3 0  9995,2 56489  69.9993 341.4804 0002630 269.3833  90.7025 14.98305963 56965,6950.267,96.109,573.96,570.304,0.0
56489.0,STARLINK-5923,PAYLOAD,2024-05-13 20:07:52,14.98311435,0.0002496,69.9991,340.8066,270.496,89.5913,0.00038267,4.474e-05,0.0,0 STARLINK-5923,1 56489U 23064AT  24134.83880749  .00004474  00000-0  38267-3 0  9996,2 56489  69.9991 340.8066 0002496 270.4960  89.5913 14.98311435 56648,6950.25,96.108,573.85,570.381,0.0
56489.0,STARLINK-5923,PAYLOAD,2024-05-14 13:45:22,14.98294263,0.0002978,69.9988,338.9557,271.7347,88.3471,0.00094441,0.00011183,0.0,0 STARLINK-5923,1 56489U 23064AT  24135.57317529  .00011183  00000-0  94441-3 0  9990,2 56489  69.9988 338.9557 0002978 271.7347  88.3471 14.98294263 57113,6950.303,96.109,574.238,570.099,0.0
56489.0,STARLINK-5923,PAYLOAD,2024-05-14 21:46:01,14.98373216,0.0003375,69.9989,338.1137,268.2291,91.8481,-0.0001987,-2.466e-05,0.0,0 STARLINK-5923,1 56489U 23064AT  24135.90695658 -.00002466  00000-0 -19870-3 0  9998,2 56489  69.9989 338.1137 0003375 268.2291  91.8481 14.98373216 56802,6950.059,96.104,574.27,569.579,0.0
56489.0,STARLINK-5923,PAYLOAD,2024-05-14 23:22:10,14.98304649,0.0002961,69.999,337.9454,273.1955,86.8865,0.0010711,0.00012702,0.0,0 STARLINK-5923,1 56489U 23064AT  24135.97373255  .00012702  00000-0  10711-2 0  9997,2 56489  69.9990 337.9454 0002961 273.1955  86.8865 14.98304649 57170,6950.271,96.109,574.194,570.078,0.0
56489.0,STARLINK-5923,PAYLOAD,2024-05-15 12:11:13,14.98350628,0.0002713,70.0002,336.5986,274.053,86.0319,0.00016349,1.859e-05,0.0,0 STARLINK-5923,1 56489U 23064AT  24136.50779834  .00001859  00000-0  16349-3 0  9995,2 56489  70.0002 336.5986 0002713 274.0530  86.0319 14.98350628 57259,6950.129,96.106,573.88,570.109,0.0
56489.0,STARLINK-5923,PAYLOAD,2024-05-15 13:47:21,14.98351539,0.0002712,69.9997,336.4303,274.2719,85.813,0.00017097,1.949e-05,0.0,0 STARLINK-5923,1 56489U 23064AT  24136.57455674  .00001949  00000-0  17097-3 0  9996,2 56489  69.9997 336.4303 0002712 274.2719  85.8130 14.98351539 56902,6950.126,96.106,573.876,570.106,0.0
56489.0,STARLINK-5923,PAYLOAD,2024-05-15 21:48:01,14.98355214,0.0002696,69.9998,335.5885,273.8432,86.2419,0.00018696,2.14e-05,0.0,0 STARLINK-5923,1 56489U 23064AT  24136.90834959  .00002140  00000-0  18696-3 0  9990,2 56489  69.9998 335.5885 0002696 273.8432  86.2419 14.98355214 56950,6950.115,96.105,573.854,570.106,0.0
56489.0,STARLINK-5923,PAYLOAD,2024-05-16 12:13:13,14.98350952,0.0002673,70.0016,334.0745,275.9852,84.1002,-2.5311e-05,-3.95e-06,0.0,0 STARLINK-5923,1 56489U 23064AT  24137.50918943 -.00000395  00000-0 -25311-4 0  9998,2 56489  70.0016 334.0745 0002673 275.9852  84.1002 14.98350952 57407,6950.128,96.106,573.851,570.135,0.0
56489.0,STARLINK-5923,PAYLOAD,2024-05-17 12:15:14,14.98340389,0.0002368,69.9992,331.5486,263.144,96.9449,-0.000138,-1.739e-05,0.0,0 STARLINK-5923,1 56489U 23064AT  24138.51058610 -.00001739  00000-0 -13800-3 0  9998,2 56489  69.9992 331.5486 0002368 263.1440  96.9449 14.98340389 57559,6950.161,96.106,573.672,570.38,0.0
56489.0,STARLINK-5923,PAYLOAD,2024-05-17 21:52:03,14.98330156,0.0002287,70.0009,330.5411,268.3922,91.6975,-0.00017692,-2.203e-05,0.0,0 STARLINK-5923,1 56489U 23064AT  24138.91115228 -.00002203  00000-0 -17692-3 0  9991,2 56489  70.0009 330.5411 0002287 268.3922  91.6975 14.98330156 57254,6950.192,96.107,573.647,570.468,0.0
56489.0,STARLINK-5923,PAYLOAD,2024-05-18 05:52:42,14.98351127,0.0003152,70.0003,329.6962,275.7969,84.283,-3.7439e-05,-5.4e-06,0.0,0 STARLINK-5923,1 56489U 23064AT  24139.24493132 -.00000540  00000-0 -37439-4 0  9995,2 56489  70.0003 329.6962 0003152 275.7969  84.2830 14.98351127 57667,6950.128,96.106,574.183,569.802,0.0
56489.0,STARLINK-5923,PAYLOAD,2024-05-18 13:53:22,14.98340722,0.0002551,70.0002,328.8552,265.718,94.3688,0.00013239,1.487e-05,0.0,0 STARLINK-5923,1 56489U 23064AT  24139.57873113  .00001487  00000-0  13239-3 0  9992,2 56489  70.0002 328.8552 0002551 265.7180  94.3688 14.98340722 57356,6950.16,96.106,573.798,570.252,0.0
56489.0,STARLINK-5923,PAYLOAD,2024-05-18 21:54:01,14.98354015,0.0002404,69.9992,328.0141,265.7428,94.3456,0.00027673,3.212e-05,0.0,0 STARLINK-5923,1 56489U 23064AT  24139.91251658  .00003212  00000-0  27673-3 0  9999,2 56489  69.9992 328.0141 0002404 265.7428  94.3456 14.98354015 57408,6950.119,96.105,573.654,570.313,0.0
56489.0,STARLINK-5923,PAYLOAD,2024-05-18 23:30:09,14.98356755,0.0002609,69.9998,327.8427,258.4148,101.6718,0.00022743,2.624e-05,0.0,0 STARLINK-5923,1 56489U 23064AT  24139.97927393  .00002624  00000-0  22743-3 0  9990,2 56489  69.9998 327.8427 0002609 258.4148 101.6718 14.98356755 57779,6950.11,96.105,573.788,570.162,0.0
56489.0,STARLINK-5923,PAYLOAD,2024-05-19 13:55:23,14.98332885,0.0002793,69.9992,326.3287,237.9622,122.1266,0.00010648,1.178e-05,0.0,0 STARLINK-5923,1 56489U 23064AT  24140.58012935  .00001178  00000-0  10648-3 0  9990,2 56489  69.9992 326.3287 0002793 237.9622 122.1266 14.98332885 57509,6950.184,96.107,573.99,570.108,0.0
56489.0,STARLINK-5923,PAYLOAD,2024-05-19 20:19:55,14.98328445,0.0002999,69.9994,325.6559,263.7112,96.3706,5.7502e-05,5.93e-06,0.0,0 STARLINK-5923,1 56489U 23064AT  24140.84717418  .00000593  00000-0  57502-4 0  9998,2 56489  69.9994 325.6559 0002999 263.7112  96.3706 14.98328445 57906,6950.198,96.107,574.147,569.978,0.0
56489.0,STARLINK-5923,PAYLOAD,2024-05-20 13:57:25,14.98327125,0.0003021,69.9996,323.8066,263.3554,96.7262,-0.00018375,-2.285e-05,0.0,0 STARLINK-5923,1 56489U 23064AT  24141.58153971 -.00002285  00000-0 -18375-3 0  9994,2 56489  69.9996 323.8066 0003021 263.3554  96.7262 14.98327125 57651,6950.202,96.107,574.166,569.967,0.0
56489.0,STARLINK-5923,PAYLOAD,2024-05-20 20:21:57,14.98325101,0.0003109,69.9997,323.1324,264.2974,95.7831,-0.00017924,-2.231e-05,0.0,0 STARLINK-5923,1 56489U 23064AT  24141.84858186 -.00002231  00000-0 -17924-3 0  9993,2 56489  69.9997 323.1324 0003109 264.2974  95.7831 14.98325101 58053,6950.208,96.107,574.234,569.912,0.0
56489.0,STARLINK-5923,PAYLOAD,2024-05-21 13:59:25,14.98324046,0.0003106,69.9995,321.2814,261.1892,98.8915,6.1154e-05,6.37e-06,0.0,0 STARLINK-5923,1 56489U 23064AT  24142.58293816  .00000637  00000-0  61154-4 0  9999,2 56489  69.9995 321.2814 0003106 261.1892  98.8915 14.98324046 57802,6950.211,96.107,574.235,569.918,0.0
56489.0,STARLINK-5923,PAYLOAD,2024-05-21 20:23:58,14.98322651,0.0003083,69.9996,320.6081,260.419,99.662,0.00014428,1.629e-05,0.0,0 STARLINK-5923,1 56489U 23064AT  24142.84997824  .00001629  00000-0  14428-3 0  9991,2 56489  69.9996 320.6081 0003083 260.4190  99.6620 14.98322651 58206,6950.216,96.107,574.223,569.938,0.0
56489.0,STARLINK-5923,PAYLOAD,2024-05-21 22:00:06,14.98327599,0.000307,69.9996,320.4397,260.8758,99.2054,9.8756e-05,1.085e-05,0.0,0 STARLINK-5923,1 56489U 23064AT  24142.91673631  .00001085  00000-0  98756-4 0  9999,2 56489  69.9996 320.4397 0003070 260.8758  99.2054 14.98327599 57857,6950.2,96.107,574.199,569.932,0.0
56489.0,STARLINK-5923,PAYLOAD,2024-05-22 12:25:18,14.98327217,0.0003187,69.9992,318.9245,263.2744,96.8052,0.00018969,2.171e-05,0.0,0 STARLINK-5923,1 56489U 23064AT  24143.51757568  .00002171  00000-0  18969-3 0  9992,2 56489  69.9992 318.9245 0003187 263.2744  96.8052 14.98327217 57946,6950.201,96.107,574.282,569.851,0.0
56489.0,STARLINK-5923,PAYLOAD,2024-05-22 20:25:57,14.98349804,0.0003301,69.9991,318.0822,269.7067,90.3714,0.0004193,4.916e-05,0.0,0 STARLINK-5923,1 56489U 23064AT  24143.85135520  .00004916  00000-0  41930-3 0  9990,2 56489  69.9991 318.0822 0003301 269.7067  90.3714 14.98349804 58350,6950.132,96.106,574.291,569.702,0.0
